{"type": "FeatureCollection", "features": [ {"type": "Feature", "properties": {"norad_id": 41556, "name": "ZIYUAN 3-02 (ZY 3-02)", "group": "resource", "lat": 66.92639371018102, "lon": 54.44792400662513, "alt_km": 501.2203124811058, "timestamp": "2025-12-24T05:51:19.262971+00:00", "meta": {"OBJECT_NAME": "ZIYUAN 3-02 (ZY 3-02)", "OBJECT_ID": "2016-033A", "EPOCH": "2025-12-23T23:14:30.098688", "MEAN_MOTION": 15.21207999, "ECCENTRICITY": 0.00113474, "INCLINATION": 97.4027, "RA_OF_ASC_NODE": 71.9477, "ARG_OF_PERICENTER": 204.2534, "MEAN_ANOMALY": 155.8169, "EPHEMERIS_TYPE": 0, "CLASSIFICATION_TYPE": "U", "NORAD_CAT_ID": 41556, "ELEMENT_SET_NO": 999, "REV_AT_EPOCH": 53134, "BSTAR": 0.00035607753, "MEAN_MOTION_DOT": 7.89e-05, "MEAN_MOTION_DDOT": 0}, "tle": {"line1": "1 41556U 16033A   25357.96840392  .00007890  00000+0  35608-3 0  9995", "line2": "2 41556  97.4027  71.9477 0011347 204.2534 155.8169 15.21207999531349"}}, "geometry": {"type": "Point", "coordinates": [54.44792400662513, 66.92639371018102]}}, {"type": "Feature", "properties": {"norad_id": 41599, "name": "CARTOSAT-2C", "group": "resource", "lat": -71.58710335186117, "lon": 78.60283188282781, "alt_km": 516.8226299788657, "timestamp": "2025-12-24T05:51:19.262981+00:00", "meta": {"OBJECT_NAME": "CARTOSAT-2C", "OBJECT_ID": "2016-040A", "EPOCH": "2025-12-23T23:51:12.390624", "MEAN_MOTION": 15.19211205, "ECCENTRICITY": 0.00108484, "INCLINATION": 97.4748, "RA_OF_ASC_NODE": 55.1271, "ARG_OF_PERICENTER": 27.7923, "MEAN_ANOMALY": 332.3889, "EPHEMERIS_TYPE": 0, "CLASSIFICATION_TYPE": "U", "NORAD_CAT_ID": 41599, "ELEMENT_SET_NO": 999, "REV_AT_EPOCH": 52711, "BSTAR": 0.0001865691, "MEAN_MOTION_DOT": 3.864e-05, "MEAN_MOTION_DDOT": 0}, "tle": {"line1": "1 41599U 16040A   25357.99389341  .00003864  00000+0  18657-3 0  9997", "line2": "2 41599  97.4748  55.1271 0010848  27.7923 332.3889 15.19211205527110"}}, "geometry": {"type": "Point", "coordinates": [78.60283188282781, -71.58710335186117]}}, {"type": "Feature", "properties": {"norad_id": 41601, "name": "SKYSAT-C1", "group": "resource", "lat": 0.5740636635388401, "lon": -145.32091097932414, "alt_km": 471.2010799239288, "timestamp": "2025-12-24T05:51:19.262991+00:00", "meta": {"OBJECT_NAME": "SKYSAT-C1", "OBJECT_ID": "2016-040C", "EPOCH": "2025-12-23T13:24:26.934912", "MEAN_MOTION": 15.32776934, "ECCENTRICITY": 0.00011111, "INCLINATION": 96.9803, "RA_OF_ASC_NODE": 33.962, "ARG_OF_PERICENTER": 332.3791, "MEAN_ANOMALY": 27.7393, "EPHEMERIS_TYPE": 0, "CLASSIFICATION_TYPE": "U", "NORAD_CAT_ID": 41601, "ELEMENT_SET_NO": 999, "REV_AT_EPOCH": 53093, "BSTAR": 0.00029928359, "MEAN_MOTION_DOT": 9.404e-05, "MEAN_MOTION_DDOT": 0}, "tle": {"line1": "1 41601U 16040C   25357.55864508  .00009404  00000+0  29928-3 0  9995", "line2": "2 41601  96.9803  33.9620 0001111 332.3791  27.7393 15.32776934530932"}}, "geometry": {"type": "Point", "coordinates": [-145.32091097932414, 0.5740636635388401]}}, {"type": "Feature", "properties": {"norad_id": 41603, "name": "LAPAN-A3", "group": "resource", "lat": -79.34286886349855, "lon": 37.17560960792862, "alt_km": 472.37745840163916, "timestamp": "2025-12-24T05:51:19.263001+00:00", "meta": {"OBJECT_NAME": "LAPAN-A3", "OBJECT_ID": "2016-040E", "EPOCH": "2025-12-23T23:56:27.403296", "MEAN_MOTION": 15.3164015, "ECCENTRICITY": 0.00087118, "INCLINATION": 97.1432, "RA_OF_ASC_NODE": 355.1444, "ARG_OF_PERICENTER": 287.2678, "MEAN_ANOMALY": 72.7611, "EPHEMERIS_TYPE": 0, "CLASSIFICATION_TYPE": "U", "NORAD_CAT_ID": 41603, "ELEMENT_SET_NO": 999, "REV_AT_EPOCH": 52798, "BSTAR": 0.00015381156, "MEAN_MOTION_DOT": 4.629e-05, "MEAN_MOTION_DDOT": 0}, "tle": {"line1": "1 41603U 16040E   25357.99753939  .00004629  00000+0  15381-3 0  9992", "line2": "2 41603  97.1432 355.1444 0008711 287.2678  72.7611 15.31640150527986"}}, "geometry": {"type": "Point", "coordinates": [37.17560960792862, -79.34286886349855]}}, {"type": "Feature", "properties": {"norad_id": 41604, "name": "BIROS", "group": "resource", "lat": 74.12729715801878, "lon": 4.306339423210338, "alt_km": 281.70246650651916, "timestamp": "2025-12-24T05:51:19.263011+00:00", "meta": {"OBJECT_NAME": "BIROS", "OBJECT_ID": "2016-040F", "EPOCH": "2025-12-23T00:54:41.222304", "MEAN_MOTION": 15.93712142, "ECCENTRICITY": 0.00037921, "INCLINATION": 97.067, "RA_OF_ASC_NODE": 28.9133, "ARG_OF_PERICENTER": 129.7524, "MEAN_ANOMALY": 230.4087, "EPHEMERIS_TYPE": 0, "CLASSIFICATION_TYPE": "U", "NORAD_CAT_ID": 41604, "ELEMENT_SET_NO": 999, "REV_AT_EPOCH": 53036, "BSTAR": 0.00061249698, "MEAN_MOTION_DOT": 0.00219845, "MEAN_MOTION_DDOT": 2.0271061e-05}, "tle": {"line1": "1 41604U 16040F   25357.03797711  .00219845  20271-4  61250-3 0  9995", "line2": "2 41604  97.0670  28.9133 0003792 129.7524 230.4087 15.93712142530369"}}, "geometry": {"type": "Point", "coordinates": [4.306339423210338, 74.12729715801878]}}, {"type": "Feature", "properties": {"norad_id": 41727, "name": "GAOFEN-3", "group": "resource", "lat": -39.61373823341012, "lon": 10.6819114931537, "alt_km": 757.731174571335, "timestamp": "2025-12-24T05:51:19.263021+00:00", "meta": {"OBJECT_NAME": "GAOFEN-3", "OBJECT_ID": "2016-049A", "EPOCH": "2025-12-23T23:22:50.763360", "MEAN_MOTION": 14.42215865, "ECCENTRICITY": 0.00011241, "INCLINATION": 98.4033, "RA_OF_ASC_NODE": 3.3886, "ARG_OF_PERICENTER": 55.9372, "MEAN_ANOMALY": 304.1925, "EPHEMERIS_TYPE": 0, "CLASSIFICATION_TYPE": "U", "NORAD_CAT_ID": 41727, "ELEMENT_SET_NO": 999, "REV_AT_EPOCH": 49339, "BSTAR": -3.550458e-06, "MEAN_MOTION_DOT": -5.5e-07, "MEAN_MOTION_DDOT": 0}, "tle": {"line1": "1 41727U 16049A   25357.97419865 -.00000055  00000+0 -35505-5 0  9996", "line2": "2 41727  98.4033   3.3886 0001124  55.9372 304.1925 14.42215865493397"}}, "geometry": {"type": "Point", "coordinates": [10.6819114931537, -39.61373823341012]}}, {"type": "Feature", "properties": {"norad_id": 41771, "name": "SKYSAT-C4", "group": "resource", "lat": 23.3494202233278, "lon": -154.11427019527514, "alt_km": 436.81191205628056, "timestamp": "2025-12-24T05:51:19.263044+00:00", "meta": {"OBJECT_NAME": "SKYSAT-C4", "OBJECT_ID": "2016-058B", "EPOCH": "2025-12-23T12:03:14.856192", "MEAN_MOTION": 15.42544852, "ECCENTRICITY": 0.00024428, "INCLINATION": 96.9361, "RA_OF_ASC_NODE": 22.1673, "ARG_OF_PERICENTER": 125.1845, "MEAN_ANOMALY": 234.9633, "EPHEMERIS_TYPE": 0, "CLASSIFICATION_TYPE": "U", "NORAD_CAT_ID": 41771, "ELEMENT_SET_NO": 999, "REV_AT_EPOCH": 51833, "BSTAR": 0.00035276823, "MEAN_MOTION_DOT": 0.00015244, "MEAN_MOTION_DDOT": 0}, "tle": {"line1": "1 41771U 16058B   25357.50225528  .00015244  00000+0  35277-3 0  9993", "line2": "2 41771  96.9361  22.1673 0002442 125.1845 234.9633 15.42544852518335"}}, "geometry": {"type": "Point", "coordinates": [-154.11427019527514, 23.3494202233278]}}, {"type": "Feature", "properties": {"norad_id": 41772, "name": "SKYSAT-C5", "group": "resource", "lat": 82.20270834058913, "lon": -23.55972181644462, "alt_km": 458.5220388433627, "timestamp": "2025-12-24T05:51:19.263055+00:00", "meta": {"OBJECT_NAME": "SKYSAT-C5", "OBJECT_ID": "2016-058C", "EPOCH": "2025-12-23T13:49:25.032288", "MEAN_MOTION": 15.34063697, "ECCENTRICITY": 0.00038982, "INCLINATION": 97.0738, "RA_OF_ASC_NODE": 40.8744, "ARG_OF_PERICENTER": 238.8594, "MEAN_ANOMALY": 121.2267, "EPHEMERIS_TYPE": 0, "CLASSIFICATION_TYPE": "U", "NORAD_CAT_ID": 41772, "ELEMENT_SET_NO": 999, "REV_AT_EPOCH": 51682, "BSTAR": 0.00029200062, "MEAN_MOTION_DOT": 9.554e-05, "MEAN_MOTION_DDOT": 0}, "tle": {"line1": "1 41772U 16058C   25357.57598417  .00009554  00000+0  29200-3 0  9997", "line2": "2 41772  97.0738  40.8744 0003898 238.8594 121.2267 15.34063697516828"}}, "geometry": {"type": "Point", "coordinates": [-23.55972181644462, 82.20270834058913]}}, {"type": "Feature", "properties": {"norad_id": 41773, "name": "SKYSAT-C2", "group": "resource", "lat": -53.344674693567896, "lon": -167.26845340096642, "alt_km": 461.683202709316, "timestamp": "2025-12-24T05:51:19.263065+00:00", "meta": {"OBJECT_NAME": "SKYSAT-C2", "OBJECT_ID": "2016-058D", "EPOCH": "2025-12-23T13:13:16.589280", "MEAN_MOTION": 15.37504356, "ECCENTRICITY": 0.00029472, "INCLINATION": 97.0347, "RA_OF_ASC_NODE": 21.6195, "ARG_OF_PERICENTER": 2.412, "MEAN_ANOMALY": 357.7139, "EPHEMERIS_TYPE": 0, "CLASSIFICATION_TYPE": "U", "NORAD_CAT_ID": 41773, "ELEMENT_SET_NO": 999, "REV_AT_EPOCH": 51802, "BSTAR": 0.00033388131, "MEAN_MOTION_DOT": 0.00012212, "MEAN_MOTION_DDOT": 0}, "tle": {"line1": "1 41773U 16058D   25357.55088645  .00012212  00000+0  33388-3 0  9990", "line2": "2 41773  97.0347  21.6195 0002947   2.4120 357.7139 15.37504356518029"}}, "geometry": {"type": "Point", "coordinates": [-167.26845340096642, -53.344674693567896]}}, {"type": "Feature", "properties": {"norad_id": 41774, "name": "SKYSAT-C3", "group": "resource", "lat": -0.059430703334629444, "lon": 31.463043733730032, "alt_km": 435.4893121139794, "timestamp": "2025-12-24T05:51:19.263075+00:00", "meta": {"OBJECT_NAME": "SKYSAT-C3", "OBJECT_ID": "2016-058E", "EPOCH": "2025-12-23T20:31:39.995328", "MEAN_MOTION": 15.44779636, "ECCENTRICITY": 0.00021217, "INCLINATION": 96.928, "RA_OF_ASC_NODE": 31.0851, "ARG_OF_PERICENTER": 105.9441, "MEAN_ANOMALY": 254.2042, "EPHEMERIS_TYPE": 0, "CLASSIFICATION_TYPE": "U", "NORAD_CAT_ID": 41774, "ELEMENT_SET_NO": 999, "REV_AT_EPOCH": 51897, "BSTAR": 0.00040043299, "MEAN_MOTION_DOT": 0.00018677, "MEAN_MOTION_DDOT": 0}, "tle": {"line1": "1 41774U 16058E   25357.85532402  .00018677  00000+0  40043-3 0  9996", "line2": "2 41774  96.9280  31.0851 0002121 105.9441 254.2042 15.44779636518978"}}, "geometry": {"type": "Point", "coordinates": [31.463043733730032, -0.059430703334629444]}}]}